GLOBALSTAR M045         
1 25676U 99019A   25171.59395314 -.00000079  00000+0  13121-3 0  9996
2 25676  51.9984 295.5604 0000815 152.7661 220.4460 12.27062799194059
GLOBALSTAR M044         
1 25678U 99019C   25171.86478056 -.00000019  00000+0  89598-3 0  9998
2 25678  51.9991  17.2332 0006856  51.4504 322.4540 11.90253504171768
GLOBALSTAR M042         
1 25679U 99019D   25171.89627659 -.00000106  00000+0 -12771-3 0  9994
2 25679  52.0032  40.4831 0002586 322.5257  50.2428 12.22083709185717
GLOBALSTAR M025         
1 25770U 99031A   25171.71637008 -.00000047  00000+0  63607-3 0  9997
2 25770  51.9782 151.0950 0001356 162.6257   8.6271 11.22558763482109
GLOBALSTAR M049         
1 25771U 99031B   25171.04538534 -.00000029  00000+0  12622-2 0  9998
2 25771  51.9829 187.5581 0002669   4.4067 355.6752 11.12115357117747
GLOBALSTAR M047         
1 25772U 99031C   25171.32838288 -.00000053  00000+0  45601-3 0  9990
2 25772  51.9790 183.5857 0016836 268.2443  91.6434 11.31928859471462
GLOBALSTAR M052         
1 25773U 99031D   25171.74685475 -.00000061  00000+0  16868-3 0  9997
2 25773  51.9883 294.5930 0003132 171.5993 341.6166 11.15059694478902
